*******************************************************************************
Ephemeris / WWW_USER Mon Mar 24 08:23:20 2025 Pasadena, USA      / Horizons    
*******************************************************************************
Target body name: (2018 TG6)                      {source: JPL#30}
Center body name: Earth (399)                     {source: DE441}
Center-site name: Mauna Kea
*******************************************************************************
Start time      : A.D. 2019-Jan-08 04:08:00.0000 UT      
Stop  time      : A.D. 2019-Jan-08 16:48:00.0000 UT      
Step-size       : 1 minutes
*******************************************************************************
Target pole/equ : undefined
Target radii    : undefined                                                    
Center geodetic : 204.5278, 19.8260847, 4.21024   {E-lon(deg),Lat(deg),Alt(km)}
Center cylindric: 204.5278, 6006.35451, 2151.0229 {E-lon(deg),Dxy(km),Dz(km)}
Center pole/equ : ITRF93                          {East-longitude positive}
Center radii    : 6378.137, 6378.137, 6356.752 km {Equator_a, b, pole_c}       
Target primary  : Sun
Vis. interferer : MOON (R_eq= 1737.400) km        {source: DE441}
Rel. light bend : Sun                             {source: DE441}
Rel. lght bnd GM: 1.3271E+11 km^3/s^2                                          
Small-body perts: Yes                             {source: SB441-N16}
Atmos refraction: NO (AIRLESS)
RA format       : HMS
Time format     : CAL 
Calendar mode   : Mixed Julian/Gregorian
RTS-only print  : NO       
EOP file        : eop.250321.p250617                                           
EOP coverage    : DATA-BASED 1962-JAN-20 TO 2025-MAR-21. PREDICTS-> 2025-JUN-16
Units conversion: 1 au= 149597870.700 km, c= 299792.458 km/s, 1 day= 86400.0 s 
Table cut-offs 1: Elevation (-90.0deg=NO ),Airmass (>38.000=NO), Daylight (YES)
Table cut-offs 2: Solar elongation (  0.0,180.0=NO ),Local Hour Angle( 0.0=NO )
Table cut-offs 3: RA/DEC angular rate (     0.0=NO )                           
*******************************************************************************
Initial IAU76/J2000 heliocentric ecliptic osculating elements (au, days, deg.):
  EPOCH=  2458431.5 ! 2018-Nov-09.00 (TDB)         Residual RMS= .2345         
   EC= .08078462401503236  QR= .9719826736009184   TP= 2458484.4320189627      
   OM= 45.37159736002829   W=  55.46172815883946   IN= 1.097814612439332       
  Equivalent ICRF heliocentric cartesian coordinates (au, au/d):
   X= 7.039692724255667E-01  Y= 6.572194580492579E-01  Z= 2.849862807208282E-01
  VX=-1.330010453008250E-02 VY= 1.042346427712734E-02 VZ= 4.885657766154543E-03
Asteroid physical parameters (km, seconds, rotational period in hours):        
   GM= n.a.                RAD= n.a.               ROTPER= n.a.                
   H= 27.25                G= .150                 B-V= n.a.                   
                           ALBEDO= n.a.            STYP= n.a.                  
*******************************************************************************
 Date__(UT)__HR:MN     R.A._________(ICRF)_________DEC
******************************************************
$$SOE
 2019-Jan-08 06:11     14 33 22.199992 +12 00 44.31939
 2019-Jan-08 06:12     14 33 22.229959 +12 00 43.29924
 2019-Jan-08 06:13     14 33 22.259882 +12 00 42.28028
 2019-Jan-08 06:14     14 33 22.289758 +12 00 41.26253
 2019-Jan-08 06:15     14 33 22.319588 +12 00 40.24598
 2019-Jan-08 06:16     14 33 22.349368 +12 00 39.23063
 2019-Jan-08 06:17     14 33 22.379097 +12 00 38.21648
 2019-Jan-08 06:18     14 33 22.408773 +12 00 37.20353
 2019-Jan-08 06:19     14 33 22.438395 +12 00 36.19178
 2019-Jan-08 06:20     14 33 22.467961 +12 00 35.18122
 2019-Jan-08 06:21     14 33 22.497470 +12 00 34.17186
 2019-Jan-08 06:22     14 33 22.526919 +12 00 33.16369
 2019-Jan-08 06:23     14 33 22.556307 +12 00 32.15672
 2019-Jan-08 06:24     14 33 22.585632 +12 00 31.15095
 2019-Jan-08 06:25     14 33 22.614893 +12 00 30.14636
 2019-Jan-08 06:26     14 33 22.644087 +12 00 29.14297
 2019-Jan-08 06:27     14 33 22.673214 +12 00 28.14077
 2019-Jan-08 06:28     14 33 22.702271 +12 00 27.13976
 2019-Jan-08 06:29     14 33 22.731257 +12 00 26.13994
 2019-Jan-08 06:30     14 33 22.760170 +12 00 25.14130
 2019-Jan-08 06:31     14 33 22.789009 +12 00 24.14385
 2019-Jan-08 06:32     14 33 22.817771 +12 00 23.14759
 2019-Jan-08 06:33     14 33 22.846455 +12 00 22.15251
 2019-Jan-08 06:34     14 33 22.875060 +12 00 21.15862
 2019-Jan-08 06:35     14 33 22.903584 +12 00 20.16590
 2019-Jan-08 06:36     14 33 22.932024 +12 00 19.17437
 2019-Jan-08 06:37     14 33 22.960380 +12 00 18.18402
 2019-Jan-08 06:38     14 33 22.988650 +12 00 17.19484
 2019-Jan-08 06:39     14 33 23.016832 +12 00 16.20685
 2019-Jan-08 06:40     14 33 23.044924 +12 00 15.22003
 2019-Jan-08 06:41     14 33 23.072925 +12 00 14.23438
 2019-Jan-08 06:42     14 33 23.100833 +12 00 13.24991
 2019-Jan-08 06:43     14 33 23.128647 +12 00 12.26661
 2019-Jan-08 06:44     14 33 23.156364 +12 00 11.28447
 2019-Jan-08 06:45     14 33 23.183984 +12 00 10.30351
 2019-Jan-08 06:46     14 33 23.211503 +12 00 09.32372
 2019-Jan-08 06:47     14 33 23.238922 +12 00 08.34509
 2019-Jan-08 06:48     14 33 23.266238 +12 00 07.36763
 2019-Jan-08 06:49     14 33 23.293449 +12 00 06.39133
 2019-Jan-08 06:50     14 33 23.320555 +12 00 05.41620
 2019-Jan-08 06:51     14 33 23.347552 +12 00 04.44222
 2019-Jan-08 06:52     14 33 23.374440 +12 00 03.46940
 2019-Jan-08 06:53     14 33 23.401218 +12 00 02.49774
 2019-Jan-08 06:54     14 33 23.427882 +12 00 01.52724
 2019-Jan-08 06:55     14 33 23.454432 +12 00 00.55789
 2019-Jan-08 06:56     14 33 23.480866 +11 59 59.58969
 2019-Jan-08 06:57     14 33 23.507183 +11 59 58.62265
 2019-Jan-08 06:58     14 33 23.533380 +11 59 57.65675
 2019-Jan-08 06:59     14 33 23.559457 +11 59 56.69200
 2019-Jan-08 07:00     14 33 23.585411 +11 59 55.72840
 2019-Jan-08 07:01     14 33 23.611241 +11 59 54.76594
 2019-Jan-08 07:02     14 33 23.636945 +11 59 53.80462
 2019-Jan-08 07:03     14 33 23.662522 +11 59 52.84445
 2019-Jan-08 07:04     14 33 23.687971 +11 59 51.88541
 2019-Jan-08 07:05     14 33 23.713288 +11 59 50.92751
 2019-Jan-08 07:06     14 33 23.738474 +11 59 49.97075
 2019-Jan-08 07:07     14 33 23.763526 +11 59 49.01512
 2019-Jan-08 07:08     14 33 23.788442 +11 59 48.06062
 2019-Jan-08 07:09     14 33 23.813222 +11 59 47.10725
 2019-Jan-08 07:10     14 33 23.837863 +11 59 46.15501
 2019-Jan-08 07:11     14 33 23.862364 +11 59 45.20389
 2019-Jan-08 07:12     14 33 23.886723 +11 59 44.25390
 2019-Jan-08 07:13     14 33 23.910939 +11 59 43.30503
 2019-Jan-08 07:14     14 33 23.935010 +11 59 42.35728
 2019-Jan-08 07:15     14 33 23.958934 +11 59 41.41065
 2019-Jan-08 07:16     14 33 23.982711 +11 59 40.46513
 2019-Jan-08 07:17     14 33 24.006338 +11 59 39.52073
 2019-Jan-08 07:18     14 33 24.029814 +11 59 38.57743
 2019-Jan-08 07:19     14 33 24.053137 +11 59 37.63525
 2019-Jan-08 07:20     14 33 24.076305 +11 59 36.69418
 2019-Jan-08 07:21     14 33 24.099318 +11 59 35.75421
 2019-Jan-08 07:22     14 33 24.122173 +11 59 34.81535
 2019-Jan-08 07:23     14 33 24.144869 +11 59 33.87758
 2019-Jan-08 07:24     14 33 24.167405 +11 59 32.94092
 2019-Jan-08 07:25     14 33 24.189779 +11 59 32.00535
 2019-Jan-08 07:26     14 33 24.211988 +11 59 31.07087
 2019-Jan-08 07:27     14 33 24.234033 +11 59 30.13749
 2019-Jan-08 07:28     14 33 24.255911 +11 59 29.20520
 2019-Jan-08 07:29     14 33 24.277620 +11 59 28.27399
 2019-Jan-08 07:30     14 33 24.299160 +11 59 27.34387
 2019-Jan-08 07:31     14 33 24.320529 +11 59 26.41483
 2019-Jan-08 07:32     14 33 24.341724 +11 59 25.48688
 2019-Jan-08 07:33     14 33 24.362745 +11 59 24.56000
 2019-Jan-08 07:34     14 33 24.383590 +11 59 23.63420
 2019-Jan-08 07:35     14 33 24.404258 +11 59 22.70947
 2019-Jan-08 07:36     14 33 24.424746 +11 59 21.78581
 2019-Jan-08 07:37     14 33 24.445054 +11 59 20.86322
 2019-Jan-08 07:38     14 33 24.465180 +11 59 19.94169
 2019-Jan-08 07:39     14 33 24.485123 +11 59 19.02123
 2019-Jan-08 07:40     14 33 24.504880 +11 59 18.10183
 2019-Jan-08 07:41     14 33 24.524451 +11 59 17.18349
 2019-Jan-08 07:42     14 33 24.543834 +11 59 16.26620
 2019-Jan-08 07:43     14 33 24.563028 +11 59 15.34997
 2019-Jan-08 07:44     14 33 24.582030 +11 59 14.43479
 2019-Jan-08 07:45     14 33 24.600840 +11 59 13.52065
 2019-Jan-08 07:46     14 33 24.619457 +11 59 12.60756
 2019-Jan-08 07:47     14 33 24.637877 +11 59 11.69552
 2019-Jan-08 07:48     14 33 24.656101 +11 59 10.78451
 2019-Jan-08 07:49     14 33 24.674126 +11 59 09.87454
 2019-Jan-08 07:50     14 33 24.691952 +11 59 08.96561
 2019-Jan-08 07:51     14 33 24.709576 +11 59 08.05771
 2019-Jan-08 07:52     14 33 24.726997 +11 59 07.15083
 2019-Jan-08 07:53     14 33 24.744215 +11 59 06.24498
 2019-Jan-08 07:54     14 33 24.761226 +11 59 05.34016
 2019-Jan-08 07:55     14 33 24.778031 +11 59 04.43636
 2019-Jan-08 07:56     14 33 24.794627 +11 59 03.53357
 2019-Jan-08 07:57     14 33 24.811013 +11 59 02.63180
 2019-Jan-08 07:58     14 33 24.827187 +11 59 01.73105
 2019-Jan-08 07:59     14 33 24.843149 +11 59 00.83130
 2019-Jan-08 08:00     14 33 24.858896 +11 58 59.93256
 2019-Jan-08 08:01     14 33 24.874428 +11 58 59.03482
 2019-Jan-08 08:02     14 33 24.889742 +11 58 58.13808
 2019-Jan-08 08:03     14 33 24.904839 +11 58 57.24234
 2019-Jan-08 08:04     14 33 24.919715 +11 58 56.34759
 2019-Jan-08 08:05     14 33 24.934369 +11 58 55.45384
 2019-Jan-08 08:06     14 33 24.948802 +11 58 54.56107
 2019-Jan-08 08:07     14 33 24.963009 +11 58 53.66929
 2019-Jan-08 08:08     14 33 24.976992 +11 58 52.77850
 2019-Jan-08 08:09     14 33 24.990747 +11 58 51.88868
 2019-Jan-08 08:10     14 33 25.004275 +11 58 50.99984
 2019-Jan-08 08:11     14 33 25.017572 +11 58 50.11197
 2019-Jan-08 08:12     14 33 25.030639 +11 58 49.22507
 2019-Jan-08 08:13     14 33 25.043473 +11 58 48.33914
